NORAD_CAT_ID,OBJECT_NAME,OBJECT_TYPE,EPOCH,MEAN_MOTION,ECCENTRICITY,INCLINATION,RA_OF_ASC_NODE,ARG_OF_PERICENTER,MEAN_ANOMALY,BSTAR,MEAN_MOTION_DOT,MEAN_MOTION_DDOT,TLE_LINE0,TLE_LINE1,TLE_LINE2,SEMIMAJOR_AXIS,PERIOD,APOGEE,PERIGEE,DECAYED
52468.0,STARLINK-3864,PAYLOAD,2024-06-10 21:13:39,15.08855599,0.0001257,53.2197,37.8576,95.509,264.6045,-0.00013986,-2.514e-05,0.0,0 STARLINK-3864,1 52468U 22049T   24162.88448035 -.00002514  00000-0 -13986-3 0  9991,2 52468  53.2197  37.8576 0001257  95.5090 264.6045 15.08855599116272,6917.833,95.437,540.567,538.828,0.0
52468.0,STARLINK-3864,PAYLOAD,2024-06-10 22:49:02,15.08850434,0.0001314,53.2197,37.5608,99.808,260.3061,-3.4179e-05,-8.32e-06,0.0,0 STARLINK-3864,1 52468U 22049T   24162.95071928 -.00000832  00000-0 -34179-4 0  9991,2 52468  53.2197  37.5608 0001314  99.8080 260.3061 15.08850434116123,6917.848,95.437,540.623,538.804,0.0
52468.0,STARLINK-3864,PAYLOAD,2024-06-11 08:21:21,15.08840224,0.0001363,53.2194,35.7761,100.0223,260.0923,4.4495e-05,4.2e-06,0.0,0 STARLINK-3864,1 52468U 22049T   24163.34816284  .00000420  00000-0  44495-4 0  9990,2 52468  53.2194  35.7761 0001363 100.0223 260.0923 15.08840224116184,6917.88,95.438,540.688,538.802,0.0
52468.0,STARLINK-3864,PAYLOAD,2024-06-12 01:50:35,15.08847812,0.0001393,53.2188,32.5044,101.2008,258.9141,0.00013709,1.895e-05,0.0,0 STARLINK-3864,1 52468U 22049T   24164.07679487  .00001895  00000-0  13709-3 0  9993,2 52468  53.2188  32.5044 0001393 101.2008 258.9141 15.08847812116451,6917.857,95.437,540.685,538.758,0.0
52468.0,STARLINK-3864,PAYLOAD,2024-06-12 08:12:09,15.08826203,0.0001974,53.2194,31.315,90.1647,269.9571,-5.8531e-05,-1.219e-05,0.0,0 STARLINK-3864,1 52468U 22049T   24164.34177651 -.00001219  00000-0 -58531-4 0  9994,2 52468  53.2194  31.3150 0001974  90.1647 269.9571 15.08826203116497,6917.923,95.438,541.153,538.422,0.0
52468.0,STARLINK-3864,PAYLOAD,2024-06-12 20:55:14,15.08833288,0.0001406,53.2179,28.9354,92.5073,267.608,-3.4918e-05,-8.43e-06,0.0,0 STARLINK-3864,1 52468U 22049T   24164.87169194 -.00000843  00000-0 -34918-4 0  9990,2 52468  53.2179  28.9354 0001406  92.5073 267.6080 15.08833288116577,6917.901,95.438,540.739,538.793,0.0
52468.0,STARLINK-3864,PAYLOAD,2024-06-12 22:30:37,15.08835353,0.0001458,53.2186,28.6357,86.332,273.7839,-1.8853e-05,-5.88e-06,0.0,0 STARLINK-3864,1 52468U 22049T   24164.93793057 -.00000588  00000-0 -18853-4 0  9994,2 52468  53.2186  28.6357 0001458  86.3320 273.7839 15.08835353116427,6917.895,95.438,540.768,538.751,0.0
52468.0,STARLINK-3864,PAYLOAD,2024-06-13 08:02:55,15.08839246,0.0001418,53.2182,26.8542,93.8492,266.2662,5.0221e-05,5.11e-06,0.0,0 STARLINK-3864,1 52468U 22049T   24165.33536697  .00000511  00000-0  50221-4 0  9993,2 52468  53.2182  26.8542 0001418  93.8492 266.2662 15.08839246116648,6917.883,95.438,540.729,538.767,0.0
52468.0,STARLINK-3864,PAYLOAD,2024-06-13 20:46:00,15.08850468,0.0001366,53.2186,24.4739,90.3507,269.7641,3.4134e-05,2.55e-06,0.0,0 STARLINK-3864,1 52468U 22049T   24165.86527967  .00000255  00000-0  34134-4 0  9991,2 52468  53.2186  24.4739 0001366  90.3507 269.7641 15.08850468116560,6917.848,95.437,540.658,538.768,0.0
52468.0,STARLINK-3864,PAYLOAD,2024-06-14 14:15:15,15.08834153,0.0001298,53.2172,21.2011,99.8244,260.2895,0.00012995,1.781e-05,0.0,0 STARLINK-3864,1 52468U 22049T   24166.59392692  .00001781  00000-0  12995-3 0  9992,2 52468  53.2172  21.2011 0001298  99.8244 260.2895 15.08834153116671,6917.898,95.438,540.661,538.865,0.0
52468.0,STARLINK-3864,PAYLOAD,2024-06-14 20:36:47,15.08838801,0.0001353,53.2181,20.0116,91.0334,269.0813,6.8705e-05,8.06e-06,0.0,0 STARLINK-3864,1 52468U 22049T   24166.85888688  .00000806  00000-0  68705-4 0  9994,2 52468  53.2181  20.0116 0001353  91.0334 269.0813 15.08838801116716,6917.884,95.438,540.685,538.813,0.0
52468.0,STARLINK-3864,PAYLOAD,2024-06-15 07:44:29,15.08843571,0.0001438,53.2184,17.9289,87.0307,273.085,8.3066e-05,1.034e-05,0.0,0 STARLINK-3864,1 52468U 22049T   24167.32256322  .00001034  00000-0  83066-4 0  9992,2 52468  53.2184  17.9289 0001438  87.0307 273.0850 15.08843571116787,6917.869,95.437,540.729,538.74,0.0
52468.0,STARLINK-3864,PAYLOAD,2024-06-15 20:27:34,15.08855256,0.0001388,53.2188,15.549,94.9045,265.2105,-8.5046e-06,-4.23e-06,0.0,0 STARLINK-3864,1 52468U 22049T   24167.85247733 -.00000423  00000-0 -85046-5 0  9990,2 52468  53.2188  15.5490 0001388  94.9045 265.2105 15.08855256116867,6917.834,95.437,540.659,538.739,0.0
52468.0,STARLINK-3864,PAYLOAD,2024-06-15 23:38:20,15.08834486,0.0001505,53.2187,14.9542,103.2777,256.8383,0.00031814,4.778e-05,0.0,0 STARLINK-3864,1 52468U 22049T   24167.98496018  .00004778  00000-0  31814-3 0  9993,2 52468  53.2187  14.9542 0001505 103.2777 256.8383 15.08834486116882,6917.897,95.438,540.803,538.721,0.0
52468.0,STARLINK-3864,PAYLOAD,2024-06-16 20:18:20,15.08854328,0.0001471,53.2191,11.0887,97.0247,263.0912,0.00014337,1.995e-05,0.0,0 STARLINK-3864,1 52468U 22049T   24168.84606992  .00001995  00000-0  14337-3 0  9992,2 52468  53.2191  11.0887 0001471  97.0247 263.0912 15.08854328117012,6917.837,95.437,540.719,538.684,0.0
52468.0,STARLINK-3864,PAYLOAD,2024-06-17 20:09:09,15.08832598,0.0001231,53.2177,6.6305,81.8615,278.2517,-9.6416e-05,-1.822e-05,0.0,0 STARLINK-3864,1 52468U 22049T   24169.83969155 -.00001822  00000-0 -96416-4 0  9995,2 52468  53.2177   6.6305 0001231  81.8615 278.2517 15.08832598117323,6917.903,95.438,540.62,538.916,0.0
52468.0,STARLINK-3864,PAYLOAD,2024-06-18 05:41:28,15.08833581,0.0001323,53.2179,4.8455,79.8667,280.2474,-6.8479e-05,-1.377e-05,0.0,0 STARLINK-3864,1 52468U 22049T   24170.23713161 -.00001377  00000-0 -68479-4 0  9998,2 52468  53.2179   4.8455 0001323  79.8667 280.2474 15.08833581117224,6917.9,95.438,540.68,538.85,0.0
52468.0,STARLINK-3864,PAYLOAD,2024-06-18 19:59:55,15.08847858,0.0001078,53.2173,2.1698,76.4254,283.6858,6.3375e-06,-1.87e-06,0.0,0 STARLINK-3864,1 52468U 22049T   24170.83328055 -.00000187  00000-0  63375-5 0  9996,2 52468  53.2173   2.1698 0001078  76.4254 283.6858 15.08847858117472,6917.856,95.437,540.467,538.976,0.0
52468.0,STARLINK-3864,PAYLOAD,2024-06-18 21:35:18,15.08854194,0.0001128,53.2172,1.8726,77.6119,282.5,9.4353e-06,-1.38e-06,0.0,0 STARLINK-3864,1 52468U 22049T   24170.89951656 -.00000138  00000-0  94353-5 0  9997,2 52468  53.2172   1.8726 0001128  77.6119 282.5000 15.08854194117320,6917.837,95.437,540.482,538.922,0.0
52468.0,STARLINK-3864,PAYLOAD,2024-06-19 05:32:14,15.08841057,0.0001497,53.2182,0.3843,81.1046,279.0116,-3.8783e-05,-9.05e-06,0.0,0 STARLINK-3864,1 52468U 22049T   24171.23072564 -.00000905  00000-0 -38783-4 0  9995,2 52468  53.2182   0.3843 0001497  81.1046 279.0116 15.08841057117539,6917.877,95.437,540.778,538.707,0.0
52468.0,STARLINK-3864,PAYLOAD,2024-06-19 19:50:43,15.08832452,0.0001507,53.2179,357.7119,81.1275,278.9888,0.00013459,1.854e-05,0.0,0 STARLINK-3864,1 52468U 22049T   24171.82689323  .00001854  00000-0  13459-3 0  9991,2 52468  53.2179 357.7119 0001507  81.1275 278.9888 15.08832452117629,6917.903,95.438,540.811,538.726,0.0
52468.0,STARLINK-3864,PAYLOAD,2024-06-19 21:26:06,15.08832824,0.000157,53.2189,357.4132,81.5317,278.5853,0.00019402,2.801e-05,0.0,0 STARLINK-3864,1 52468U 22049T   24171.89313328  .00002801  00000-0  19402-3 0  9994,2 52468  53.2189 357.4132 0001570  81.5317 278.5853 15.08832824117477,6917.902,95.438,540.853,538.681,0.0
52468.0,STARLINK-3864,PAYLOAD,2024-06-20 11:44:34,15.08839493,0.0001474,53.2186,354.7366,84.5418,275.5742,4.0844e-05,3.62e-06,0.0,0 STARLINK-3864,1 52468U 22049T   24172.48929124  .00000362  00000-0  40844-4 0  9992,2 52468  53.2186 354.7366 0001474  84.5418 275.5742 15.08839493117564,6917.882,95.438,540.767,538.727,0.0
52468.0,STARLINK-3864,PAYLOAD,2024-06-20 19:41:30,15.08846007,0.0001368,53.2179,353.2512,93.2505,266.8644,6.6168e-05,7.65e-06,0.0,0 STARLINK-3864,1 52468U 22049T   24172.82048745  .00000765  00000-0  66168-4 0  9995,2 52468  53.2179 353.2512 0001368  93.2505 266.8644 15.08846007117775,6917.862,95.437,540.673,538.781,0.0
52468.0,STARLINK-3864,PAYLOAD,2024-06-21 19:32:17,15.08843595,0.0001266,53.2172,348.7905,92.4469,267.6668,0.00012523,1.706e-05,0.0,0 STARLINK-3864,1 52468U 22049T   24173.81409013  .00001706  00000-0  12523-3 0  9995,2 52468  53.2172 348.7905 0001266  92.4469 267.6668 15.08843595117921,6917.869,95.437,540.61,538.859,0.0
52468.0,STARLINK-3864,PAYLOAD,2024-06-22 11:26:08,15.08846314,0.0001555,53.2177,345.8184,72.4555,287.6607,-3.7578e-05,-8.86e-06,0.0,0 STARLINK-3864,1 52468U 22049T   24174.47649061 -.00000886  00000-0 -37578-4 0  9995,2 52468  53.2177 345.8184 0001555  72.4555 287.6607 15.08846314117868,6917.861,95.437,540.802,538.65,0.0
52468.0,STARLINK-3864,PAYLOAD,2024-06-22 17:47:41,15.08843094,0.0001533,53.2186,344.6296,69.4694,290.6463,9.0679e-05,1.156e-05,0.0,0 STARLINK-3864,1 52468U 22049T   24174.74145303  .00001156  00000-0  90679-4 0  9995,2 52468  53.2186 344.6296 0001533  69.4694 290.6463 15.08843094118064,6917.871,95.437,540.796,538.675,0.0
52468.0,STARLINK-3864,PAYLOAD,2024-06-23 14:27:42,15.08840603,0.0001376,53.2182,340.7646,77.6296,282.485,5.7677e-05,6.3e-06,0.0,0 STARLINK-3864,1 52468U 22049T   24175.60257456  .00000630  00000-0  57677-4 0  9991,2 52468  53.2182 340.7646 0001376  77.6296 282.4850 15.08840603118039,6917.879,95.438,540.695,538.792,0.0
52468.0,STARLINK-3864,PAYLOAD,2024-06-23 20:49:14,15.08844459,0.0001436,53.2174,339.573,76.9483,283.1669,9.2621e-05,1.187e-05,0.0,0 STARLINK-3864,1 52468U 22049T   24175.86753052  .00001187  00000-0  92621-4 0  9998,2 52468  53.2174 339.5730 0001436  76.9483 283.1669 15.08844459118238,6917.867,95.437,540.725,538.738,0.0
52468.0,STARLINK-3864,PAYLOAD,2024-06-24 14:18:29,15.0881007,0.0001702,53.2174,336.2986,98.5183,261.6002,0.00059623,9.206e-05,0.0,0 STARLINK-3864,1 52468U 22049T   24176.59617848  .00009206  00000-0  59623-3 0  9995,2 52468  53.2174 336.2986 0001702  98.5183 261.6002 15.08810070118186,6917.972,95.439,541.014,538.659,0.0
